{
  "type": "FeatureCollection",
  "features": [
    {
      "type": "Feature",
      "properties": {
        "norad_id": 33844,
        "name": "COSMOS 2251 DEB",
        "group": "cosmos-2251-debris",
        "lat": -50.97860967182673,
        "lon": -88.61564029944336,
        "alt_km": 811.0665193578116,
        "timestamp": "2025-12-02T21:34:01.663519+00:00",
        "meta_object_name": "COSMOS 2251 DEB",
        "meta_object_id": "1993-036CM",
        "meta_epoch": "2025-12-02T12:11:23.609760",
        "meta_mean_motion": 14.33678852,
        "meta_eccentricity": 0.0047219,
        "meta_inclination": 74.067,
        "meta_ra_of_asc_node": 71.4572,
        "meta_arg_of_pericenter": 96.6588,
        "meta_mean_anomaly": 281.023,
        "meta_ephemeris_type": 0,
        "meta_classification_type": "U",
        "meta_norad_cat_id": 33844,
        "meta_element_set_no": 999,
        "meta_rev_at_epoch": 87579,
        "meta_bstar": 0.00056449,
        "meta_mean_motion_dot": 1.56e-05,
        "meta_mean_motion_ddot": 0,
        "tle_line1": "1 33844U 93036CM  25336.50791215  .00001560  00000+0  56449-3 0  9994",
        "tle_line2": "2 33844  74.0670  71.4572 0047219  96.6588 281.0230 14.33678852875798"
      },
      "geometry": {
        "type": "Point",
        "coordinates": [
          -88.61564029944336,
          -50.97860967182673
        ]
      }
    },
    {
      "type": "Feature",
      "properties": {
        "norad_id": 33848,
        "name": "COSMOS 2251 DEB",
        "group": "cosmos-2251-debris",
        "lat": 45.061653388323904,
        "lon": 32.62736262939179,
        "alt_km": 715.422731388474,
        "timestamp": "2025-12-02T21:34:01.663532+00:00",
        "meta_object_name": "COSMOS 2251 DEB",
        "meta_object_id": "1993-036CR",
        "meta_epoch": "2025-12-02T05:00:09.281664",
        "meta_mean_motion": 14.43950643,
        "meta_eccentricity": 0.00409138,
        "meta_inclination": 74.0328,
        "meta_ra_of_asc_node": 17.2364,
        "meta_arg_of_pericenter": 76.7241,
        "meta_mean_anomaly": 344.6723,
        "meta_ephemeris_type": 0,
        "meta_classification_type": "U",
        "meta_norad_cat_id": 33848,
        "meta_element_set_no": 999,
        "meta_rev_at_epoch": 87679,
        "meta_bstar": 0.0010727998,
        "meta_mean_motion_dot": 3.676e-05,
        "meta_mean_motion_ddot": 0,
        "tle_line1": "1 33848U 93036CR  25336.20844076  .00003676  00000+0  10728-2 0  9998",
        "tle_line2": "2 33848  74.0328  17.2364 0040913  76.7241 344.6723 14.43950643876794"
      },
      "geometry": {
        "type": "Point",
        "coordinates": [
          32.62736262939179,
          45.061653388323904
        ]
      }
    },
    {
      "type": "Feature",
      "properties": {
        "norad_id": 33892,
        "name": "COSMOS 2251 DEB",
        "group": "cosmos-2251-debris",
        "lat": -15.179599891205367,
        "lon": 115.48630229846192,
        "alt_km": 898.8260094302887,
        "timestamp": "2025-12-02T21:34:01.663544+00:00",
        "meta_object_name": "COSMOS 2251 DEB",
        "meta_object_id": "1993-036CV",
        "meta_epoch": "2025-12-02T11:50:08.948832",
        "meta_mean_motion": 14.23263519,
        "meta_eccentricity": 0.011366,
        "meta_inclination": 73.8017,
        "meta_ra_of_asc_node": 120.749,
        "meta_arg_of_pericenter": 153.8851,
        "meta_mean_anomaly": 273.9359,
        "meta_ephemeris_type": 0,
        "meta_classification_type": "U",
        "meta_norad_cat_id": 33892,
        "meta_element_set_no": 999,
        "meta_rev_at_epoch": 86809,
        "meta_bstar": 0.0012248,
        "meta_mean_motion_dot": 2.938e-05,
        "meta_mean_motion_ddot": 0,
        "tle_line1": "1 33892U 93036CV  25336.49315913  .00002938  00000+0  12248-2 0  9990",
        "tle_line2": "2 33892  73.8017 120.7490 0113660 153.8851 273.9359 14.23263519868099"
      },
      "geometry": {
        "type": "Point",
        "coordinates": [
          115.48630229846192,
          -15.179599891205367
        ]
      }
    },
    {
      "type": "Feature",
      "properties": {
        "norad_id": 33894,
        "name": "COSMOS 2251 DEB",
        "group": "cosmos-2251-debris",
        "lat": -73.051719565684,
        "lon": -102.75410911519802,
        "alt_km": 772.402276391178,
        "timestamp": "2025-12-02T21:34:01.663555+00:00",
        "meta_object_name": "COSMOS 2251 DEB",
        "meta_object_id": "1993-036CX",
        "meta_epoch": "2025-12-02T03:49:58.594944",
        "meta_mean_motion": 13.21246326,
        "meta_eccentricity": 0.05793089,
        "meta_inclination": 73.7666,
        "meta_ra_of_asc_node": 5.4523,
        "meta_arg_of_pericenter": 286.2375,
        "meta_mean_anomaly": 67.575,
        "meta_ephemeris_type": 0,
        "meta_classification_type": "U",
        "meta_norad_cat_id": 33894,
        "meta_element_set_no": 999,
        "meta_rev_at_epoch": 80568,
        "meta_bstar": 0.0022342216,
        "meta_mean_motion_dot": 2.199e-05,
        "meta_mean_motion_ddot": 0,
        "tle_line1": "1 33894U 93036CX  25336.15970596  .00002199  00000+0  22342-2 0  9994",
        "tle_line2": "2 33894  73.7666   5.4523 0579308 286.2375  67.5750 13.21246326805685"
      },
      "geometry": {
        "type": "Point",
        "coordinates": [
          -102.75410911519802,
          -73.051719565684
        ]
      }
    },
    {
      "type": "Feature",
      "properties": {
        "norad_id": 33896,
        "name": "COSMOS 2251 DEB",
        "group": "cosmos-2251-debris",
        "lat": -23.55820605354844,
        "lon": 1.8472308471393943,
        "alt_km": 909.9040462329322,
        "timestamp": "2025-12-02T21:34:01.663578+00:00",
        "meta_object_name": "COSMOS 2251 DEB",
        "meta_object_id": "1993-036CZ",
        "meta_epoch": "2025-12-01T23:10:45.067296",
        "meta_mean_motion": 14.18995904,
        "meta_eccentricity": 0.01259889,
        "meta_inclination": 73.7658,
        "meta_ra_of_asc_node": 176.2416,
        "meta_arg_of_pericenter": 353.6454,
        "meta_mean_anomaly": 128.2182,
        "meta_ephemeris_type": 0,
        "meta_classification_type": "U",
        "meta_norad_cat_id": 33896,
        "meta_element_set_no": 999,
        "meta_rev_at_epoch": 86587,
        "meta_bstar": 0.00066116482,
        "meta_mean_motion_dot": 1.466e-05,
        "meta_mean_motion_ddot": 0,
        "tle_line1": "1 33896U 93036CZ  25335.96579939  .00001466  00000+0  66116-3 0  9994",
        "tle_line2": "2 33896  73.7658 176.2416 0125988 353.6454 128.2182 14.18995904865875"
      },
      "geometry": {
        "type": "Point",
        "coordinates": [
          1.8472308471393943,
          -23.55820605354844
        ]
      }
    },
    {
      "type": "Feature",
      "properties": {
        "norad_id": 33899,
        "name": "COSMOS 2251 DEB",
        "group": "cosmos-2251-debris",
        "lat": 3.992021126090045,
        "lon": -76.62543953405539,
        "alt_km": 651.3240290552485,
        "timestamp": "2025-12-02T21:34:01.663590+00:00",
        "meta_object_name": "COSMOS 2251 DEB",
        "meta_object_id": "1993-036DC",
        "meta_epoch": "2025-12-02T11:14:58.011072",
        "meta_mean_motion": 14.61004679,
        "meta_eccentricity": 0.0057867,
        "meta_inclination": 74.0525,
        "meta_ra_of_asc_node": 105.3385,
        "meta_arg_of_pericenter": 170.8054,
        "meta_mean_anomaly": 264.6589,
        "meta_ephemeris_type": 0,
        "meta_classification_type": "U",
        "meta_norad_cat_id": 33899,
        "meta_element_set_no": 999,
        "meta_rev_at_epoch": 88689,
        "meta_bstar": 0.0014757,
        "meta_mean_motion_dot": 7.39e-05,
        "meta_mean_motion_ddot": 0,
        "tle_line1": "1 33899U 93036DC  25336.46872698  .00007390  00000+0  14757-2 0  9996",
        "tle_line2": "2 33899  74.0525 105.3385 0057867 170.8054 264.6589 14.61004679886897"
      },
      "geometry": {
        "type": "Point",
        "coordinates": [
          -76.62543953405539,
          3.992021126090045
        ]
      }
    },
    {
      "type": "Feature",
      "properties": {
        "norad_id": 33900,
        "name": "COSMOS 2251 DEB",
        "group": "cosmos-2251-debris",
        "lat": -47.443429749535305,
        "lon": 0.4277597303969028,
        "alt_km": 729.5367168096673,
        "timestamp": "2025-12-02T21:34:01.663601+00:00",
        "meta_object_name": "COSMOS 2251 DEB",
        "meta_object_id": "1993-036DD",
        "meta_epoch": "2025-12-02T12:27:55.970784",
        "meta_mean_motion": 14.58285246,
        "meta_eccentricity": 0.0047453,
        "meta_inclination": 74.0201,
        "meta_ra_of_asc_node": 19.3357,
        "meta_arg_of_pericenter": 174.1906,
        "meta_mean_anomaly": 305.4068,
        "meta_ephemeris_type": 0,
        "meta_classification_type": "U",
        "meta_norad_cat_id": 33900,
        "meta_element_set_no": 999,
        "meta_rev_at_epoch": 88887,
        "meta_bstar": 0.00056616,
        "meta_mean_motion_dot": 2.629e-05,
        "meta_mean_motion_ddot": 0,
        "tle_line1": "1 33900U 93036DD  25336.51939781  .00002629  00000+0  56616-3 0  9993",
        "tle_line2": "2 33900  74.0201  19.3357 0047453 174.1906 305.4068 14.58285246888870"
      },
      "geometry": {
        "type": "Point",
        "coordinates": [
          0.4277597303969028,
          -47.443429749535305
        ]
      }
    }
  ]
}